CCSDS_OMM_VERS,COMMENT,CREATION_DATE,ORIGINATOR,OBJECT_NAME,OBJECT_ID,CENTER_NAME,REF_FRAME,TIME_SYSTEM,MEAN_ELEMENT_THEORY,EPOCH,MEAN_MOTION,ECCENTRICITY,INCLINATION,RA_OF_ASC_NODE,ARG_OF_PERICENTER,MEAN_ANOMALY,EPHEMERIS_TYPE,CLASSIFICATION_TYPE,NORAD_CAT_ID,ELEMENT_SET_NO,REV_AT_EPOCH,BSTAR,MEAN_MOTION_DOT,MEAN_MOTION_DDOT,SEMIMAJOR_AXIS,PERIOD,APOAPSIS,PERIAPSIS,OBJECT_TYPE,RCS_SIZE,COUNTRY_CODE,LAUNCH_DATE,SITE,DECAY_DATE,FILE,GP_ID,TLE_LINE0,TLE_LINE1,TLE_LINE2
"2.0","GENERATED VIA SPACE-TRACK.ORG API","2019-06-26T22:20:15","18 SPCS","OBJECT AC","2019-029AC","EARTH","TEME","UTC","SGP4","2019-06-25T21:54:25.681536","15.04464815","0.00019880","53.0012","24.8273","102.0618","258.0592","0","U","44261","999","510","0.00007787200000","0.00000825","0.0000000000000","6931.285","95.715","554.528","551.773","TBA","LARGE","US","2019-05-24","AFETR","","2500863","134087217","0 OBJECT AC","1 44261U 19029AC  19176.91279724  .00000825  00000-0  77872-4 0  9993","2 44261  53.0012  24.8273 0001988 102.0618 258.0592 15.04464815  5105"
"2.0","GENERATED VIA SPACE-TRACK.ORG API","2019-06-26T04:21:55","18 SPCS","OBJECT AC","2019-029AC","EARTH","TEME","UTC","SGP4","2019-06-25T21:54:33.054912","15.04496994","0.00021760","53.0014","24.8250","123.6275","236.4920","0","U","44261","999","416","-0.01327700000000","-0.00183398","0.0000000000000","6931.187","95.713","554.560","551.543","TBA","LARGE","US","2019-05-24","AFETR","","2500436","134058958","0 OBJECT AC","1 44261U 19029AC  19176.91288258 -.00183398 +00000-0 -13277-1 0  9990","2 44261 053.0014 024.8250 0002176 123.6275 236.4920 15.04496994004163"
"2.0","GENERATED VIA SPACE-TRACK.ORG API","2019-06-26T06:30:17","18 SPCS","OBJECT AC","2019-029AC","EARTH","TEME","UTC","SGP4","2019-06-25T21:54:33.054912","15.04496994","0.00021760","53.0014","24.8250","123.6275","236.4920","0","U","44261","999","510","-0.01327700000000","-0.00183398","0.0000000000000","6931.187","95.713","554.560","551.543","TBA","LARGE","US","2019-05-24","AFETR","","2500472","134059820","0 OBJECT AC","1 44261U 19029AC  19176.91288258 -.00183398  00000-0 -13277-1 0  9990","2 44261  53.0014  24.8250 0002176 123.6275 236.4920 15.04496994  5108"
"2.0","GENERATED VIA SPACE-TRACK.ORG API","2019-06-26T05:20:11","18 SPCS","AEOLUS","2018-066A","EARTH","TEME","UTC","SGP4","2019-06-26T02:33:51.698304","15.86901091","0.00043180","96.7153","183.8333","54.9648","305.3501","0","U","43600","999","4870","0.00000000000000","-0.00000137","0.0000000000000","6689.114","90.742","313.867","308.090","PAYLOAD","LARGE","ESA","2018-08-22","FRGUI","","2500440","134059059","0 AEOLUS","1 43600U 18066A   19177.10684836 -.00000137  00000-0  00000+0 0  9996","2 43600  96.7153 183.8333 0004318  54.9648 305.3501 15.86901091 48703"
"2.0","GENERATED VIA SPACE-TRACK.ORG API","2019-06-26T14:40:14","18 SPCS","AEOLUS","2018-066A","EARTH","TEME","UTC","SGP4","2019-06-26T11:38:39.374880","15.86886561","0.00053050","96.7216","184.2070","45.8306","314.2568","0","U","43600","999","4876","0.00000000000000","-0.00000137","0.0000000000000","6689.154","90.743","314.568","307.471","PAYLOAD","LARGE","ESA","2018-08-22","FRGUI","","2500773","134066774","0 AEOLUS","1 43600U 18066A   19177.48517795 -.00000137  00000-0  00000+0 0  9996","2 43600  96.7216 184.2070 0005305  45.8306 314.2568 15.86886561 48765"
"2.0","GENERATED VIA SPACE-TRACK.ORG API","2019-06-27T03:42:32","18 SPCS","AEOLUS","2018-066A","EARTH","TEME","UTC","SGP4","2019-06-26T22:14:19.197312","15.86888187","0.00064280","96.7091","184.6385","14.1282","346.0651","0","U","43600","999","4883","0.00000000000000","-0.00000138","0.0000000000000","6689.150","90.743","315.315","306.715","PAYLOAD","LARGE","ESA","2018-08-22","FRGUI","","2500952","134107314","0 AEOLUS","1 43600U 18066A   19177.92661108 -.00000138 +00000-0 +00000-0 0  9995","2 43600 096.7091 184.6385 0006428 014.1282 346.0651 15.86888187048838"
"2.0","GENERATED VIA SPACE-TRACK.ORG API","2019-06-27T22:20:16","18 SPCS","OBJECT AC","2019-029AC","EARTH","TEME","UTC","SGP4","2019-06-27T00:59:12.158880","15.06744047","0.00020890","53.0021","19.7579","128.4489","231.6688","0","U","44261","999","527","0.00008032700000","0.00000925","0.0000000000000","6924.294","95.570","547.605","544.712","TBA","LARGE","US","2019-05-24","AFETR","","2501310","134134874","0 OBJECT AC","1 44261U 19029AC  19178.04111295  .00000925  00000-0  80327-4 0  9997","2 44261  53.0021  19.7579 0002089 128.4489 231.6688 15.06744047  5279"
"2.0","GENERATED VIA SPACE-TRACK.ORG API","2019-06-27T07:00:16","18 SPCS","AEOLUS","2018-066A","EARTH","TEME","UTC","SGP4","2019-06-27T01:15:55.187712","15.86891639","0.00050650","96.7181","184.7600","27.2500","332.9253","0","U","43600","999","4885","0.00000000000000","-0.00000137","0.0000000000000","6689.140","90.743","314.393","307.617","PAYLOAD","LARGE","ESA","2018-08-22","FRGUI","","2501110","134111635","0 AEOLUS","1 43600U 18066A   19178.05272208 -.00000137  00000-0  00000+0 0  9997","2 43600  96.7181 184.7600 0005065  27.2500 332.9253 15.86891639 48853"
"2.0","GENERATED VIA SPACE-TRACK.ORG API","2019-06-27T22:00:11","18 SPCS","AEOLUS","2018-066A","EARTH","TEME","UTC","SGP4","2019-06-27T17:54:46.517472","15.86894669","0.00043770","96.7127","185.4401","72.9373","287.2497","0","U","43600","999","4896","0.00000000000000","-0.00000137","0.0000000000000","6689.132","90.743","313.924","308.069","PAYLOAD","LARGE","ESA","2018-08-22","FRGUI","","2501277","134134101","0 AEOLUS","1 43600U 18066A   19178.74637173 -.00000137  00000-0  00000+0 0  9999","2 43600  96.7127 185.4401 0004377  72.9373 287.2497 15.86894669 48960"
"2.0","GENERATED VIA SPACE-TRACK.ORG API","2019-06-28T05:30:11","18 SPCS","AEOLUS","2018-066A","EARTH","TEME","UTC","SGP4","2019-06-28T04:30:24.722496","15.86689362","0.00033250","96.7277","185.8917","39.8492","319.8781","0","U","43600","999","4903","0.00000000000000","-0.00000136","0.0000000000000","6689.709","90.755","313.798","309.349","PAYLOAD","LARGE","ESA","2018-08-22","FRGUI","","2501487","134157503","0 AEOLUS","1 43600U 18066A   19179.18778614 -.00000136  00000-0  00000+0 0  9993","2 43600  96.7277 185.8917 0003325  39.8492 319.8781 15.86689362 49037"
"2.0","GENERATED VIA SPACE-TRACK.ORG API","2019-06-28T22:20:16","18 SPCS","OBJECT AC","2019-029AC","EARTH","TEME","UTC","SGP4","2019-06-28T13:37:26.844384","15.03943797","0.00023660","53.0096","12.9070","116.4992","243.6238","0","U","44261","999","550","0.00007996600000","0.00000840","0.0000000000000","6932.886","95.748","556.392","553.111","TBA","LARGE","US","2019-05-24","AFETR","","2501939","134185456","0 OBJECT AC","1 44261U 19029AC  19179.56767181  .00000840  00000-0  79966-4 0  9999","2 44261  53.0096  12.9070 0002366 116.4992 243.6238 15.03943797  5506"
"2.0","GENERATED VIA SPACE-TRACK.ORG API","2019-06-29T06:20:17","18 SPCS","OBJECT AC","2019-029AC","EARTH","TEME","UTC","SGP4","2019-06-28T23:11:39.186528","15.04048571","0.00032380","53.0055","11.1164","116.9323","243.1995","0","U","44261","999","556","0.00008208800000","0.00000872","0.0000000000000","6932.564","95.741","556.674","552.184","TBA","LARGE","US","2019-05-24","AFETR","","2502090","134207032","0 OBJECT AC","1 44261U 19029AC  19179.96642577  .00000872  00000-0  82088-4 0  9998","2 44261  53.0055  11.1164 0003238 116.9323 243.1995 15.04048571  5566"
"2.0","GENERATED VIA SPACE-TRACK.ORG API","2019-06-29T22:20:17","18 SPCS","OBJECT AC","2019-029AC","EARTH","TEME","UTC","SGP4","2019-06-29T19:54:47.887488","15.05971407","0.00019330","53.0018","7.2453","132.0656","228.0496","0","U","44261","999","569","0.00008538400000","0.00000977","0.0000000000000","6926.662","95.619","549.866","547.188","TBA","LARGE","US","2019-05-24","AFETR","","2502511","134234565","0 OBJECT AC","1 44261U 19029AC  19180.82972092  .00000977  00000-0  85384-4 0  9991","2 44261  53.0018   7.2453 0001933 132.0656 228.0496 15.05971407  5696"
"2.0","GENERATED VIA SPACE-TRACK.ORG API","2019-06-30T03:47:08","18 SPCS","OBJECT AC","2019-029AC","EARTH","TEME","UTC","SGP4","2019-06-29T21:30:21.872736","15.05971459","0.00018600","53.0018","6.9476","129.1789","230.9364","0","U","44261","999","476","0.00008730200000","0.00001005","0.0000000000000","6926.662","95.619","549.815","547.238","TBA","LARGE","US","2019-05-24","AFETR","","2502643","134256034","0 OBJECT AC","1 44261U 19029AC  19180.89608649 +.00001005 +00000-0 +87302-4 0  9997","2 44261 053.0018 006.9476 0001860 129.1789 230.9364 15.05971459004760"
"2.0","GENERATED VIA SPACE-TRACK.ORG API","2019-06-30T05:40:12","18 SPCS","AEOLUS","2018-066A","EARTH","TEME","UTC","SGP4","2019-06-30T05:12:33.290208","15.86752676","0.00045770","96.7196","187.8805","77.3562","345.9000","0","U","43600","999","4935","0.00008079600000","0.00020389","0.0000000000000","6689.531","90.751","314.457","308.334","PAYLOAD","LARGE","ESA","2018-08-22","FRGUI","","2502650","134256151","0 AEOLUS","1 43600U 18066A   19181.21705197  .00020389  00000-0  80796-4 0  9992","2 43600  96.7196 187.8805 0004577  77.3562 345.9000 15.86752676 49358"
"2.0","GENERATED VIA SPACE-TRACK.ORG API","2019-06-30T22:40:16","18 SPCS","AEOLUS","2018-066A","EARTH","TEME","UTC","SGP4","2019-06-30T19:00:12.903264","15.86768657","0.00047220","96.7208","188.4481","73.7371","30.4957","0","U","43600","999","4944","0.00007279200000","0.00018366","0.0000000000000","6689.486","90.750","314.510","308.192","PAYLOAD","LARGE","ESA","2018-08-22","FRGUI","","2503131","134304225","0 AEOLUS","1 43600U 18066A   19181.79181601  .00018366  00000-0  72792-4 0  9992","2 43600  96.7208 188.4481 0004722  73.7371  30.4957 15.86768657 49442"
